HIMAWARI-8              
1 40267U 14060A   23261.84492081 -.00000268  00000+0  00000+0 0  9995
2 40267   0.0281 258.7867 0000705 322.1871 221.3489  1.00271221 32708
